{"type":"FeatureCollection","crs":{"type":"name","properties":{"name":"EPSG:3857"}},"features":[{"type":"Feature","id":19,"geometry":{"type":"LineString","coordinates":[[-9373101.124793634,4020748.3345961794],[-9373011.061388368,4020781.1150419265],[-9373035.016295118,4020846.930985768],[-9373125.079700388,4020814.150351163],[-9373101.124793634,4020748.3345961794]]},"properties":{"DETAIL_ID":"W1","LEVEL_ID":"L1","USE_TYPE":"Wall"}},{"type":"Feature","id":20,"geometry":{"type":"LineString","coordinates":[[-9373092.291651962,4020751.549597275],[-9373089.17407255,4020752.684303761]]},"properties":{"DETAIL_ID":"D21","LEVEL_ID":"L1","USE_TYPE":"Door - Receiving Dock"}},{"type":"Feature","id":21,"geometry":{"type":"LineString","coordinates":[[-9373087.095686276,4020753.440774811],[-9373083.978106864,4020754.575481485]]},"properties":{"DETAIL_ID":"D22","LEVEL_ID":"L1","USE_TYPE":"Door - Receiving Dock"}},{"type":"Feature","id":22,"geometry":{"type":"LineString","coordinates":[[-9373081.899720589,4020755.3319526617],[-9373078.782141173,4020756.466659524]]},"properties":{"DETAIL_ID":"D23","LEVEL_ID":"L1","USE_TYPE":"Door - Receiving Dock"}},{"type":"Feature","id":23,"geometry":{"type":"LineString","coordinates":[[-9373076.703754898,4020757.223130828],[-9373073.586175486,4020758.357837874]]},"properties":{"DETAIL_ID":"D24","LEVEL_ID":"L1","USE_TYPE":"Door - Receiving Dock"}},{"type":"Feature","id":24,"geometry":{"type":"LineString","coordinates":[[-9373050.723926455,4020766.679026343],[-9373047.606347043,4020767.8137343316]]},"properties":{"DETAIL_ID":"D25","LEVEL_ID":"L1","USE_TYPE":"Door - Shipping Dock"}},{"type":"Feature","id":25,"geometry":{"type":"LineString","coordinates":[[-9373043.795972204,4020769.200599803],[-9373040.678392792,4020770.3353080396]]},"properties":{"DETAIL_ID":"D26","LEVEL_ID":"L1","USE_TYPE":"Door - Shipping Dock"}},{"type":"Feature","id":26,"geometry":{"type":"LineString","coordinates":[[-9373036.868017953,4020771.722173817],[-9373033.75043854,4020772.856882307]]},"properties":{"DETAIL_ID":"D27","LEVEL_ID":"L1","USE_TYPE":"Door - Shipping Dock"}},{"type":"Feature","id":27,"geometry":{"type":"LineString","coordinates":[[-9373029.940063702,4020774.243748392],[-9373026.822484287,4020775.3784571285]]},"properties":{"DETAIL_ID":"D28","LEVEL_ID":"L1","USE_TYPE":"Door - Shipping Dock"}}]}