{"type":"FeatureCollection","crs":{"type":"name","properties":{"name":"EPSG:3857"}},"features":[{"type":"Feature","id":1,"geometry":{"type":"Polygon","coordinates":[[[-9373101.761546781,4020771.6400518385],[-9373098.990365077,4020772.648681592],[-9373110.33742617,4020803.82458462],[-9373113.108607873,4020802.815952111],[-9373101.761546781,4020771.6400518385]]]},"properties":{"UNIT_ID":"U2","LEVEL_ID":"L1","USE_TYPE":"Storage Rack","NAME":"Pallet rack 1"}},{"type":"Feature","id":2,"geometry":{"type":"Polygon","coordinates":[[[-9373095.17999024,4020774.0355476504],[-9373092.40880854,4020775.0441776193],[-9373103.755869633,4020806.2200871827],[-9373106.527051333,4020805.2114544613],[-9373095.17999024,4020774.0355476504]]]},"properties":{"UNIT_ID":"U3","LEVEL_ID":"L1","USE_TYPE":"Storage Rack","NAME":"Pallet rack 2"}},{"type":"Feature","id":3,"geometry":{"type":"Polygon","coordinates":[[[-9373088.598433701,4020776.4310439653],[-9373085.827252,4020777.4396741455],[-9373097.174313094,4020808.615590246],[-9373099.945494793,4020807.606957317],[-9373088.598433701,4020776.4310439653]]]},"properties":{"UNIT_ID":"U4","LEVEL_ID":"L1","USE_TYPE":"Storage Rack","NAME":"Pallet rack 3"}},{"type":"Feature","id":4,"geometry":{"type":"Polygon","coordinates":[[[-9373082.016877163,4020778.8265407854],[-9373079.245695462,4020779.8351711743],[-9373090.592756556,4020811.011093812],[-9373093.363938257,4020810.002460671],[-9373082.016877163,4020778.8265407854]]]},"properties":{"UNIT_ID":"U5","LEVEL_ID":"L1","USE_TYPE":"Storage Rack","NAME":"Pallet rack 4"}},{"type":"Feature","id":5,"geometry":{"type":"Polygon","coordinates":[[[-9373075.435320623,4020781.222038104],[-9373072.664138924,4020782.230668708],[-9373084.011200016,4020813.4065978834],[-9373086.782381715,4020812.3979645274],[-9373075.435320623,4020781.222038104]]]},"properties":{"UNIT_ID":"U6","LEVEL_ID":"L1","USE_TYPE":"Storage Rack","NAME":"Pallet rack 5"}},{"type":"Feature","id":6,"geometry":{"type":"Polygon","coordinates":[[[-9373060.19382127,4020786.769507513],[-9373059.501025844,4020787.021665276],[-9373069.587302372,4020814.7336097425],[-9373070.280097798,4020814.4814513684],[-9373060.19382127,4020786.769507513]]]},"properties":{"UNIT_ID":"U7","LEVEL_ID":"L1","USE_TYPE":"Shelving","NAME":"Pick shelving 1"}},{"type":"Feature","id":7,"geometry":{"type":"Polygon","coordinates":[[[-9373057.42263957,4020787.7781386026],[-9373056.729844145,4020788.0302963913],[-9373066.816120673,4020815.742243305],[-9373067.508916097,4020815.490084904],[-9373057.42263957,4020787.7781386026]]]},"properties":{"UNIT_ID":"U8","LEVEL_ID":"L1","USE_TYPE":"Shelving","NAME":"Pick shelving 2"}},{"type":"Feature","id":8,"geometry":{"type":"Polygon","coordinates":[[[-9373056.729844145,4020788.0302963913],[-9373056.03704872,4020788.282454183],[-9373066.123325247,4020815.9944017073],[-9373066.816120673,4020815.742243305],[-9373056.729844145,4020788.0302963913]]]},"properties":{"UNIT_ID":"U9","LEVEL_ID":"L1","USE_TYPE":"Shelving","NAME":"Pick shelving 3"}},{"type":"Feature","id":9,"geometry":{"type":"Polygon","coordinates":[[[-9373053.958662445,4020789.0389275923],[-9373053.26586702,4020789.2910854053],[-9373063.352143547,4020817.0030353772],[-9373064.044938972,4020816.7508769524],[-9373053.958662445,4020789.0389275923]]]},"properties":{"UNIT_ID":"U10","LEVEL_ID":"L1","USE_TYPE":"Shelving","NAME":"Pick shelving 4"}},{"type":"Feature","id":10,"geometry":{"type":"Polygon","coordinates":[[[-9373053.26586702,4020789.2910854053],[-9373052.573071593,4020789.543243228],[-9373062.65934812,4020817.255193811],[-9373063.352143547,4020817.0030353772],[-9373053.26586702,4020789.2910854053]]]},"properties":{"UNIT_ID":"U11","LEVEL_ID":"L1","USE_TYPE":"Shelving","NAME":"Pick shelving 5"}},{"type":"Feature","id":11,"geometry":{"type":"Polygon","coordinates":[[[-9373050.494685318,4020790.2997167213],[-9373049.801889893,4020790.551874562],[-9373059.88816642,4020818.263827592],[-9373060.580961846,4020818.0116691394],[-9373050.494685318,4020790.2997167213]]]},"properties":{"UNIT_ID":"U12","LEVEL_ID":"L1","USE_TYPE":"Shelving","NAME":"Pick shelving 6"}},{"type":"Feature","id":12,"geometry":{"type":"Polygon","coordinates":[[[-9373049.801889893,4020790.551874562],[-9373049.109094469,4020790.8040324124],[-9373059.195370996,4020818.515986051],[-9373059.88816642,4020818.263827592],[-9373049.801889893,4020790.551874562]]]},"properties":{"UNIT_ID":"U13","LEVEL_ID":"L1","USE_TYPE":"Shelving","NAME":"Pick shelving 7"}},{"type":"Feature","id":13,"geometry":{"type":"Polygon","coordinates":[[[-9373047.030708194,4020791.5605059885],[-9373046.337912768,4020791.8126638574],[-9373056.424189296,4020819.5246199467],[-9373057.11698472,4020819.2724614656],[-9373047.030708194,4020791.5605059885]]]},"properties":{"UNIT_ID":"U14","LEVEL_ID":"L1","USE_TYPE":"Shelving","NAME":"Pick shelving 8"}},{"type":"Feature","id":14,"geometry":{"type":"Polygon","coordinates":[[[-9373046.337912768,4020791.8126638574],[-9373045.645117342,4020792.064821732],[-9373055.73139387,4020819.7767784325],[-9373056.424189296,4020819.5246199467],[-9373046.337912768,4020791.8126638574]]]},"properties":{"UNIT_ID":"U15","LEVEL_ID":"L1","USE_TYPE":"Shelving","NAME":"Pick shelving 9"}},{"type":"Feature","id":15,"geometry":{"type":"Polygon","coordinates":[[[-9373043.566731067,4020792.821295396],[-9373042.873935642,4020793.0734532923],[-9373052.96021217,4020820.7854124396],[-9373053.653007595,4020820.533253931],[-9373043.566731067,4020792.821295396]]]},"properties":{"UNIT_ID":"U16","LEVEL_ID":"L1","USE_TYPE":"Shelving","NAME":"Pick shelving 10"}},{"type":"Feature","id":16,"geometry":{"type":"Polygon","coordinates":[[[-9373042.873935642,4020793.0734532923],[-9373042.181140216,4020793.3256111946],[-9373052.267416744,4020821.0375709543],[-9373052.96021217,4020820.7854124396],[-9373042.873935642,4020793.0734532923]]]},"properties":{"UNIT_ID":"U17","LEVEL_ID":"L1","USE_TYPE":"Shelving","NAME":"Pick shelving 11"}},{"type":"Feature","id":17,"geometry":{"type":"Polygon","coordinates":[[[-9373040.102753941,4020794.0820849384],[-9373039.409958517,4020794.3342428664],[-9373049.496235043,4020822.0462050717],[-9373050.189030468,4020821.7940465324],[-9373040.102753941,4020794.0820849384]]]},"properties":{"UNIT_ID":"U18","LEVEL_ID":"L1","USE_TYPE":"Shelving","NAME":"Pick shelving 12"}},{"type":"Feature","id":18,"geometry":{"type":"Polygon","coordinates":[[[-9373045.089849923,4020831.4957933375],[-9373031.233941423,4020836.5389694246],[-9373035.016295118,4020846.930985768],[-9373048.872203622,4020841.8878050903],[-9373045.089849923,4020831.4957933375]]]},"properties":{"UNIT_ID":"U19","LEVEL_ID":"L1","USE_TYPE":"Office","NAME":"Office"}}]}